[{"OBJECT_NAME":"STARLINK-37034","OBJECT_ID":"2026-050E","EPOCH":"2026-03-27T06:00:02.999808","MEAN_MOTION":15.80806468,"ECCENTRICITY":9.108e-5,"INCLINATION":53.1591,"RA_OF_ASC_NODE":193.7993,"ARG_OF_PERICENTER":82.8469,"MEAN_ANOMALY":215.1784,"EPHEMERIS_TYPE":0,"CLASSIFICATION_TYPE":"U","NORAD_CAT_ID":68171,"ELEMENT_SET_NO":999,"REV_AT_EPOCH":326,"BSTAR":0.00053346904,"MEAN_MOTION_DOT":0.0010556,"MEAN_MOTION_DDOT":0},{"OBJECT_NAME":"STARLINK-37031","OBJECT_ID":"2026-050F","EPOCH":"2026-03-27T06:00:02.999808","MEAN_MOTION":15.80787969,"ECCENTRICITY":0.00011734,"INCLINATION":53.1591,"RA_OF_ASC_NODE":193.7906,"ARG_OF_PERICENTER":110.7624,"MEAN_ANOMALY":191.5431,"EPHEMERIS_TYPE":0,"CLASSIFICATION_TYPE":"U","NORAD_CAT_ID":68172,"ELEMENT_SET_NO":999,"REV_AT_EPOCH":326,"BSTAR":0.00082602739,"MEAN_MOTION_DOT":0.00164831,"MEAN_MOTION_DDOT":0},{"OBJECT_NAME":"STARLINK-37076","OBJECT_ID":"2026-050G","EPOCH":"2026-03-27T06:00:02.999808","MEAN_MOTION":15.8076841,"ECCENTRICITY":0.00012939,"INCLINATION":53.1591,"RA_OF_ASC_NODE":193.7822,"ARG_OF_PERICENTER":118.249,"MEAN_ANOMALY":188.3318,"EPHEMERIS_TYPE":0,"CLASSIFICATION_TYPE":"U","NORAD_CAT_ID":68173,"ELEMENT_SET_NO":999,"REV_AT_EPOCH":326,"BSTAR":0.00099498836,"MEAN_MOTION_DOT":0.00199313,"MEAN_MOTION_DDOT":0},{"OBJECT_NAME":"STARLINK-37078","OBJECT_ID":"2026-050H","EPOCH":"2026-03-27T06:00:02.999808","MEAN_MOTION":15.80785455,"ECCENTRICITY":0.00012685,"INCLINATION":53.1588,"RA_OF_ASC_NODE":193.7737,"ARG_OF_PERICENTER":117.1069,"MEAN_ANOMALY":193.7313,"EPHEMERIS_TYPE":0,"CLASSIFICATION_TYPE":"U","NORAD_CAT_ID":68174,"ELEMENT_SET_NO":999,"REV_AT_EPOCH":326,"BSTAR":0.00081234297,"MEAN_MOTION_DOT":0.00162017,"MEAN_MOTION_DDOT":0},{"OBJECT_NAME":"STARLINK-36886","OBJECT_ID":"2026-050J","EPOCH":"2026-03-27T06:00:02.999808","MEAN_MOTION":15.80804677,"ECCENTRICITY":0.00010986,"INCLINATION":53.1589,"RA_OF_ASC_NODE":193.7643,"ARG_OF_PERICENTER":90.2654,"MEAN_ANOMALY":224.8541,"EPHEMERIS_TYPE":0,"CLASSIFICATION_TYPE":"U","NORAD_CAT_ID":68175,"ELEMENT_SET_NO":999,"REV_AT_EPOCH":326,"BSTAR":0.00036841099,"MEAN_MOTION_DOT":0.00072395,"MEAN_MOTION_DDOT":0},{"OBJECT_NAME":"STARLINK-36905","OBJECT_ID":"2026-050K","EPOCH":"2026-03-27T06:00:02.999808","MEAN_MOTION":15.80783524,"ECCENTRICITY":0.00011718,"INCLINATION":53.1591,"RA_OF_ASC_NODE":193.756,"ARG_OF_PERICENTER":109.9692,"MEAN_ANOMALY":209.4187,"EPHEMERIS_TYPE":0,"CLASSIFICATION_TYPE":"U","NORAD_CAT_ID":68176,"ELEMENT_SET_NO":999,"REV_AT_EPOCH":326,"BSTAR":0.00087330442,"MEAN_MOTION_DOT":0.00174466,"MEAN_MOTION_DDOT":0},{"OBJECT_NAME":"STARLINK-36668","OBJECT_ID":"2026-050L","EPOCH":"2026-03-27T06:00:02.999808","MEAN_MOTION":15.80747605,"ECCENTRICITY":2.993e-5,"INCLINATION":53.1589,"RA_OF_ASC_NODE":193.7463,"ARG_OF_PERICENTER":66.0592,"MEAN_ANOMALY":257.6351,"EPHEMERIS_TYPE":0,"CLASSIFICATION_TYPE":"U","NORAD_CAT_ID":68177,"ELEMENT_SET_NO":999,"REV_AT_EPOCH":326,"BSTAR":0.00086850012,"MEAN_MOTION_DOT":0.00173193,"MEAN_MOTION_DDOT":0},{"OBJECT_NAME":"STARLINK-36677","OBJECT_ID":"2026-050M","EPOCH":"2026-03-27T06:00:02.999808","MEAN_MOTION":15.80773115,"ECCENTRICITY":8.265e-5,"INCLINATION":53.159,"RA_OF_ASC_NODE":193.7372,"ARG_OF_PERICENTER":106.1187,"MEAN_ANOMALY":221.811,"EPHEMERIS_TYPE":0,"CLASSIFICATION_TYPE":"U","NORAD_CAT_ID":68178,"ELEMENT_SET_NO":999,"REV_AT_EPOCH":326,"BSTAR":0.00055960999,"MEAN_MOTION_DOT":0.00110662,"MEAN_MOTION_DDOT":0},{"OBJECT_NAME":"STARLINK-37052","OBJECT_ID":"2026-050N","EPOCH":"2026-03-27T06:00:02.999808","MEAN_MOTION":15.80814247,"ECCENTRICITY":0.00011668,"INCLINATION":53.1588,"RA_OF_ASC_NODE":193.7291,"ARG_OF_PERICENTER":123.5231,"MEAN_ANOMALY":208.6748,"EPHEMERIS_TYPE":0,"CLASSIFICATION_TYPE":"U","NORAD_CAT_ID":68179,"ELEMENT_SET_NO":999,"REV_AT_EPOCH":326,"BSTAR":0.00043549431,"MEAN_MOTION_DOT":0.00085878,"MEAN_MOTION_DDOT":0},{"OBJECT_NAME":"STARLINK-37035","OBJECT_ID":"2026-050P","EPOCH":"2026-03-27T06:00:02.999808","MEAN_MOTION":15.80823438,"ECCENTRICITY":8.542e-5,"INCLINATION":53.1589,"RA_OF_ASC_NODE":193.7204,"ARG_OF_PERICENTER":100.615,"MEAN_ANOMALY":235.8456,"EPHEMERIS_TYPE":0,"CLASSIFICATION_TYPE":"U","NORAD_CAT_ID":68180,"ELEMENT_SET_NO":999,"REV_AT_EPOCH":326,"BSTAR":0.00027886827,"MEAN_MOTION_DOT":0.00054563,"MEAN_MOTION_DDOT":0},{"OBJECT_NAME":"STARLINK-37032","OBJECT_ID":"2026-050Q","EPOCH":"2026-03-27T06:00:02.999808","MEAN_MOTION":15.8082185,"ECCENTRICITY":8.99e-5,"INCLINATION":53.1589,"RA_OF_ASC_NODE":193.7116,"ARG_OF_PERICENTER":89.1449,"MEAN_ANOMALY":251.5915,"EPHEMERIS_TYPE":0,"CLASSIFICATION_TYPE":"U","NORAD_CAT_ID":68181,"ELEMENT_SET_NO":999,"REV_AT_EPOCH":326,"BSTAR":0.00024958125,"MEAN_MOTION_DOT":0.00048722,"MEAN_MOTION_DDOT":0},{"OBJECT_NAME":"STARLINK-37082","OBJECT_ID":"2026-050R","EPOCH":"2026-03-27T06:00:02.999808","MEAN_MOTION":15.8082781,"ECCENTRICITY":0.0001438,"INCLINATION":53.1589,"RA_OF_ASC_NODE":193.7027,"ARG_OF_PERICENTER":71.0412,"MEAN_ANOMALY":273.9686,"EPHEMERIS_TYPE":0,"CLASSIFICATION_TYPE":"U","NORAD_CAT_ID":68182,"ELEMENT_SET_NO":999,"REV_AT_EPOCH":326,"BSTAR":0.0002527302,"MEAN_MOTION_DOT":0.00049364,"MEAN_MOTION_DDOT":0},{"OBJECT_NAME":"STARLINK-37102","OBJECT_ID":"2026-050S","EPOCH":"2026-03-27T06:00:02.999808","MEAN_MOTION":15.80823195,"ECCENTRICITY":0.00010785,"INCLINATION":53.1588,"RA_OF_ASC_NODE":193.6939,"ARG_OF_PERICENTER":75.5673,"MEAN_ANOMALY":273.7137,"EPHEMERIS_TYPE":0,"CLASSIFICATION_TYPE":"U","NORAD_CAT_ID":68183,"ELEMENT_SET_NO":999,"REV_AT_EPOCH":326,"BSTAR":0.00020789907,"MEAN_MOTION_DOT":0.00040432,"MEAN_MOTION_DDOT":0},{"OBJECT_NAME":"STARLINK-36964","OBJECT_ID":"2026-050T","EPOCH":"2026-03-27T06:00:02.999808","MEAN_MOTION":15.80775596,"ECCENTRICITY":9.5e-5,"INCLINATION":53.1588,"RA_OF_ASC_NODE":193.6848,"ARG_OF_PERICENTER":91.8116,"MEAN_ANOMALY":261.7483,"EPHEMERIS_TYPE":0,"CLASSIFICATION_TYPE":"U","NORAD_CAT_ID":68184,"ELEMENT_SET_NO":999,"REV_AT_EPOCH":326,"BSTAR":0.0010083347,"MEAN_MOTION_DOT":0.0020213,"MEAN_MOTION_DDOT":0},{"OBJECT_NAME":"STARLINK-37061","OBJECT_ID":"2026-050U","EPOCH":"2026-03-27T06:00:02.999808","MEAN_MOTION":15.80813794,"ECCENTRICITY":0.00011799,"INCLINATION":53.159,"RA_OF_ASC_NODE":193.6765,"ARG_OF_PERICENTER":81.6999,"MEAN_ANOMALY":276.1297,"EPHEMERIS_TYPE":0,"CLASSIFICATION_TYPE":"U","NORAD_CAT_ID":68185,"ELEMENT_SET_NO":999,"REV_AT_EPOCH":326,"BSTAR":0.00033778689,"MEAN_MOTION_DOT":0.000663,"MEAN_MOTION_DDOT":0},{"OBJECT_NAME":"STARLINK-37079","OBJECT_ID":"2026-050V","EPOCH":"2026-03-27T06:00:02.999808","MEAN_MOTION":15.80831169,"ECCENTRICITY":0.00011924,"INCLINATION":53.159,"RA_OF_ASC_NODE":193.6676,"ARG_OF_PERICENTER":98.0911,"MEAN_ANOMALY":264.0031,"EPHEMERIS_TYPE":0,"CLASSIFICATION_TYPE":"U","NORAD_CAT_ID":68186,"ELEMENT_SET_NO":999,"REV_AT_EPOCH":326,"BSTAR":0.00014262572,"MEAN_MOTION_DOT":0.00027486,"MEAN_MOTION_DDOT":0}]
