STARLINK-37034          
1 68171U 26050E   26086.25003472  .00105560  00000+0  53347-3 0  9992
2 68171  53.1591 193.7993 0000910  82.8469 215.1784 15.80806468  3262
STARLINK-37031          
1 68172U 26050F   26086.25003472  .00164831  00000+0  82603-3 0  9996
2 68172  53.1591 193.7906 0001173 110.7624 191.5431 15.80787969  3263
STARLINK-37076          
1 68173U 26050G   26086.25003472  .00199313  00000+0  99499-3 0  9991
2 68173  53.1591 193.7822 0001293 118.2490 188.3318 15.80768410  3266
STARLINK-37078          
1 68174U 26050H   26086.25003472  .00162017  00000+0  81234-3 0  9991
2 68174  53.1588 193.7737 0001268 117.1069 193.7313 15.80785455  3263
STARLINK-36886          
1 68175U 26050J   26086.25003472  .00072395  00000+0  36841-3 0  9995
2 68175  53.1589 193.7643 0001098  90.2654 224.8541 15.80804677  3260
STARLINK-36905          
1 68176U 26050K   26086.25003472  .00174466  00000+0  87330-3 0  9997
2 68176  53.1591 193.7560 0001171 109.9692 209.4187 15.80783524  3266
STARLINK-36668          
1 68177U 26050L   26086.25003472  .00173193  00000+0  86850-3 0  9990
2 68177  53.1589 193.7463 0000299  66.0592 257.6351 15.80747605  3266
STARLINK-36677          
1 68178U 26050M   26086.25003472  .00110662  00000+0  55961-3 0  9992
2 68178  53.1590 193.7372 0000826 106.1187 221.8110 15.80773115  3261
STARLINK-37052          
1 68179U 26050N   26086.25003472  .00085878  00000+0  43549-3 0  9992
2 68179  53.1588 193.7291 0001166 123.5231 208.6748 15.80814247  3262
STARLINK-37035          
1 68180U 26050P   26086.25003472  .00054563  00000+0  27887-3 0  9998
2 68180  53.1589 193.7204 0000854 100.6150 235.8456 15.80823438  3268
STARLINK-37032          
1 68181U 26050Q   26086.25003472  .00048722  00000+0  24958-3 0  9995
2 68181  53.1589 193.7116 0000899  89.1449 251.5915 15.80821850  3263
STARLINK-37082          
1 68182U 26050R   26086.25003472  .00049364  00000+0  25273-3 0  9990
2 68182  53.1589 193.7027 0001438  71.0412 273.9686 15.80827810  3260
STARLINK-37102          
1 68183U 26050S   26086.25003472  .00040432  00000+0  20790-3 0  9997
2 68183  53.1588 193.6939 0001078  75.5673 273.7137 15.80823195  3260
STARLINK-36964          
1 68184U 26050T   26086.25003472  .00202130  00000+0  10083-2 0  9996
2 68184  53.1588 193.6848 0000950  91.8116 261.7483 15.80775596  3263
STARLINK-37061          
1 68185U 26050U   26086.25003472  .00066300  00000+0  33779-3 0  9992
2 68185  53.1590 193.6765 0001179  81.6999 276.1297 15.80813794  3261
STARLINK-37079          
1 68186U 26050V   26086.25003472  .00027486  00000+0  14263-3 0  9992
2 68186  53.1590 193.6676 0001192  98.0911 264.0031 15.80831169  3262
